NORAD_CAT_ID,OBJECT_NAME,OBJECT_TYPE,EPOCH,MEAN_MOTION,ECCENTRICITY,INCLINATION,RA_OF_ASC_NODE,ARG_OF_PERICENTER,MEAN_ANOMALY,BSTAR,MEAN_MOTION_DOT,MEAN_MOTION_DDOT,TLE_LINE0,TLE_LINE1,TLE_LINE2,SEMIMAJOR_AXIS,PERIOD,APOGEE,PERIGEE,DECAYED
52370.0,STARLINK-3827,PAYLOAD,2022-05-15 22:00:00,15.7315116,0.0001131,53.2138,356.906,97.0076,353.1747,0.00030047,0.0004167,0.0,0 STARLINK-3827,1 52370U 22045AR  22135.91667824  .00041670  00000-0  30047-3 0  9991,2 52370  53.2138 356.9060 0001131  97.0076 353.1747 15.73151160  5077,6728.034000000002,91.536,350.66,349.13800000000015,0.0
52370.0,STARLINK-3827,PAYLOAD,2022-05-16 12:00:00,15.73144968,0.0001209,53.2138,354.017,106.8294,48.9437,0.00059686,0.00083786,0.0,0 STARLINK-3827,1 52370U 22045AR  22136.50001157  .00083786  00000-0  59686-3 0  9992,2 52370  53.2138 354.0170 0001209 106.8294  48.9437 15.73144968  5168,6728.052,91.536,350.73,349.10400000000016,0.0
52370.0,STARLINK-3827,PAYLOAD,2022-05-16 14:00:01,15.73183702,0.0001205,53.2141,353.6046,107.7962,160.1882,0.00016114,0.00022038,0.0,0 STARLINK-3827,1 52370U 22045AR  22136.58334491  .00022038  00000-0  16114-3 0  9992,2 52370  53.2141 353.6046 0001205 107.7962 160.1882 15.73183702  1309,6727.941999999999,91.534,350.617,348.996,0.0
52370.0,STARLINK-3827,PAYLOAD,2022-05-16 22:00:00,15.73182108,0.0001041,53.2138,351.9569,96.1688,260.7785,0.00039381,0.00054968,0.0,0 STARLINK-3827,1 52370U 22045AR  22136.91667824  .00054968  00000-0  39381-3 0  9996,2 52370  53.2138 351.9569 0001041  96.1688 260.7785 15.73182108  1308,6727.946,91.534,350.51199999999994,349.111,0.0
52370.0,STARLINK-3827,PAYLOAD,2022-05-17 06:00:00,15.73269249,9.98e-05,53.2132,350.3063,98.8426,347.0188,-0.00066736,-0.00093518,0.0,0 STARLINK-3827,1 52370U 22045AR  22137.25001157 -.00093518  00000-0 -66736-3 0  9995,2 52370  53.2132 350.3063 0000998  98.8426 347.0188 15.73269249  5282,6727.698,91.529,350.2340000000001,348.891,0.0
52370.0,STARLINK-3827,PAYLOAD,2022-05-17 14:00:01,15.73222825,0.0001286,53.2135,348.6554,108.7795,66.1031,-0.0003955,-0.00055813,0.0,0 STARLINK-3827,1 52370U 22045AR  22137.58335648 -.00055813  00000-0 -39550-3 0  9996,2 52370  53.2135 348.6554 0001286 108.7795  66.1031 15.73222825  1305,6727.83,91.532,350.56,348.83,0.0
52370.0,STARLINK-3827,PAYLOAD,2022-05-17 20:00:01,15.73192918,0.0001128,53.2134,347.4199,98.6271,52.9099,-0.00047368,-0.00066552,0.0,0 STARLINK-3827,1 52370U 22045AR  22137.83334491 -.00066552  00000-0 -47368-3 0  9997,2 52370  53.2134 347.4199 0001128  98.6271  52.9099 15.73192918  5374,6727.915,91.534,350.539,349.021,0.0
52370.0,STARLINK-3827,PAYLOAD,2022-05-17 22:00:01,15.73154373,0.000115,53.2136,347.0079,95.2875,168.5496,4.458e-05,5.629e-05,0.0,0 STARLINK-3827,1 52370U 22045AR  22137.91668981  .00005629  00000-0  44580-4 0  9990,2 52370  53.2136 347.0079 0001150  95.2875 168.5496 15.73154373  1304,6728.025,91.536,350.664,349.117,0.0
52370.0,STARLINK-3827,PAYLOAD,2022-05-18 06:00:00,15.73197224,9.44e-05,53.2136,345.3571,99.553,253.106,0.00023983,0.00033167,0.0,0 STARLINK-3827,1 52370U 22045AR  22138.25001157  .00033167  00000-0  23983-3 0  9995,2 52370  53.2136 345.3571 0000944  99.5530 253.1060 15.73197224  5435,6727.903,91.533,350.403,349.1330000000001,0.0
52370.0,STARLINK-3827,PAYLOAD,2022-05-18 14:00:01,15.73228361,0.0001115,53.2141,343.7064,105.1823,336.4115,-0.00014102,-0.00020387,0.0,0 STARLINK-3827,1 52370U 22045AR  22138.58334491 -.00020387  00000-0 -14102-3 0  9996,2 52370  53.2141 343.7064 0001115 105.1823 336.4115 15.73228361  1305,6727.814,91.532,350.42900000000014,348.92900000000014,0.0
52370.0,STARLINK-3827,PAYLOAD,2022-05-18 20:00:01,15.73233878,0.0001053,53.2138,342.4709,92.6782,325.628,-0.00072479,-0.00101267,0.0,0 STARLINK-3827,1 52370U 22045AR  22138.83334491 -.00101267  00000-0 -72479-3 0  9992,2 52370  53.2138 342.4709 0001053  92.6782 325.6280 15.73233878  5539,6727.799,91.531,350.372,348.955,0.0
52370.0,STARLINK-3827,PAYLOAD,2022-05-18 22:00:00,15.73199236,0.0001048,53.2139,342.0588,88.9173,81.6331,-0.00040584,-0.00057187,0.0,0 STARLINK-3827,1 52370U 22045AR  22138.91667824 -.00057187  00000-0 -40584-3 0  9993,2 52370  53.2139 342.0588 0001048  88.9173  81.6331 15.73199236  1303,6727.897,91.533,350.467,349.057,0.0
52370.0,STARLINK-3827,PAYLOAD,2022-05-19 06:00:00,15.73157018,0.0001055,53.2133,340.4078,96.4501,163.0035,0.00022423,0.00030907,0.0,0 STARLINK-3827,1 52370U 22045AR  22139.25001157  .00030907  00000-0  22423-3 0  9993,2 52370  53.2133 340.4078 0001055  96.4501 163.0035 15.73157018  5593,6728.018,91.536,350.593,349.173,0.0
52370.0,STARLINK-3827,PAYLOAD,2022-05-19 14:00:01,15.73185965,0.0001209,53.2136,338.7575,104.2737,244.1362,-3.1917e-05,-5.093e-05,0.0,0 STARLINK-3827,1 52370U 22045AR  22139.58335648 -.00005093  00000-0 -31917-4 0  9993,2 52370  53.2136 338.7575 0001209 104.2737 244.1362 15.73185965  1309,6727.935,91.534,350.61400000000015,348.987,0.0
52370.0,STARLINK-3827,PAYLOAD,2022-05-19 22:00:00,15.7319235,0.000112,53.2138,337.1101,90.737,346.5295,0.00051954,0.00072905,0.0,0 STARLINK-3827,1 52370U 22045AR  22139.91667824  .00072905  00000-0  51954-3 0  9990,2 52370  53.2138 337.1101 0001120  90.7370 346.5295 15.73192350  1301,6727.917,91.534,350.536,349.028,0.0
52370.0,STARLINK-3827,PAYLOAD,2022-05-20 14:00:01,15.72847738,0.0001264999999999,53.2167,333.8079,99.6503,155.4963,0.0039026,0.0057779,0.0,0 STARLINK-3827,1 52370U 22045AR  22140.58334491  .00577790  00000-0  39026-2 0  9993,2 52370  53.2167 333.8079 0001265  99.6503 155.4963 15.72847738  5800,6728.9,91.554,351.616,349.913,0.0
52370.0,STARLINK-3827,PAYLOAD,2022-05-20 22:00:00,15.7318118,9.04e-05,53.214,332.161,79.2798,264.8644,0.00045827,0.00064135,0.0,0 STARLINK-3827,1 52370U 22045AR  22140.91667824  .00064135  00000-0  45827-3 0  9990,2 52370  53.2140 332.1610 0000904  79.2798 264.8644 15.73181180  5852,6727.949000000001,91.534,350.422,349.206,0.0
52370.0,STARLINK-3827,PAYLOAD,2022-05-21 06:00:00,15.7319589,8.58e-05,53.2136,330.5098,90.8825,342.2003,0.00033786,0.00047054,0.0,0 STARLINK-3827,1 52370U 22045AR  22141.25001157  .00047054  00000-0  33786-3 0  9991,2 52370  53.2136 330.5098 0000858  90.8825 342.2003 15.73195890  1306,6727.906999999997,91.533,350.349,349.195,0.0
52370.0,STARLINK-3827,PAYLOAD,2022-05-21 14:00:01,15.73271022,0.0001019,53.2138,328.86,96.1064,65.9629,-0.00038856,-0.0005496,0.0,0 STARLINK-3827,1 52370U 22045AR  22141.58335648 -.00054960  00000-0 -38856-3 0  9991,2 52370  53.2138 328.8600 0001019  96.1064  65.9629 15.73271022  5962,6727.693,91.529,350.24300000000005,348.872,0.0
52370.0,STARLINK-3827,PAYLOAD,2022-05-21 22:00:00,15.73203229,9.92e-05,53.2139,327.2124,76.7592,174.2515,4.1439e-05,5.201e-05,0.0,0 STARLINK-3827,1 52370U 22045AR  22141.91667824  .00005201  00000-0  41439-4 0  9996,2 52370  53.2139 327.2124 0000992  76.7592 174.2515 15.73203229  1302,6727.886,91.533,350.418,349.084,0.0
52370.0,STARLINK-3827,PAYLOAD,2022-05-22 14:00:01,15.73194711,0.0001106,53.2142,323.9113,85.855,342.9801,-0.00057486,-0.0008051,0.0,0 STARLINK-3827,1 52370U 22045AR  22142.58334491 -.00080510  00000-0 -57486-3 0  9997,2 52370  53.2142 323.9113 0001106  85.8550 342.9801 15.73194711  1307,6727.91,91.533,350.519,349.031,0.0
52370.0,STARLINK-3827,PAYLOAD,2022-05-22 22:00:01,15.73127311,0.0001074,53.2139,322.2636,68.5987,89.2239,0.00078072,0.0011005,0.0,0 STARLINK-3827,1 52370U 22045AR  22142.91668981  .00110050  00000-0  78072-3 0  9993,2 52370  53.2139 322.2636 0001074  68.5987  89.2239 15.73127311  6179,6728.102,91.537,350.69,349.245,0.0
52370.0,STARLINK-3827,PAYLOAD,2022-05-23 04:00:00,15.73205371,0.0001078,53.2134,321.0251,73.5306,60.8749,-0.00037117,-0.00052398,0.0,0 STARLINK-3827,1 52370U 22045AR  22143.16667824 -.00052398  00000-0 -37117-3 0  9993,2 52370  53.2134 321.0251 0001078  73.5306  60.8749 15.73205371  6218,6727.88,91.533,350.47,349.02,0.0
52370.0,STARLINK-3827,PAYLOAD,2022-05-23 14:00:01,15.73203303,0.0001233,53.2136,318.963,82.3496,253.1546,-0.00043671,-0.00061471,0.0,0 STARLINK-3827,1 52370U 22045AR  22143.58334491 -.00061471  00000-0 -43671-3 0  9994,2 52370  53.2136 318.9630 0001233  82.3496 253.1546 15.73203303  1307,6727.886,91.533,350.58,348.921,0.0
52370.0,STARLINK-3827,PAYLOAD,2022-05-23 22:00:01,15.73168714,0.0001194,53.2134,317.3152,68.5023,356.0099,0.00019515,0.00026819,0.0,0 STARLINK-3827,1 52370U 22045AR  22143.91668981  .00026819  00000-0  19515-3 0  9990,2 52370  53.2134 317.3152 0001194  68.5023 356.0099 15.73168714  6335,6727.984,91.535,350.653,349.046,0.0
52370.0,STARLINK-3827,PAYLOAD,2022-05-24 14:00:01,15.73092536,0.000143,53.217,314.0139,81.8724,160.3487,0.001295,0.00184316,0.0,0 STARLINK-3827,1 52370U 22045AR  22144.58334491  .00184316  00000-0  12950-2 0  9992,2 52370  53.2170 314.0139 0001430  81.8724 160.3487 15.73092536  6439,6728.2019999999975,91.539,351.029,349.10400000000016,0.0
52370.0,STARLINK-3827,PAYLOAD,2022-05-24 22:00:00,15.73208142,0.0001022,53.2133,312.3661,48.2506,283.0438,0.0002466,0.00034141,0.0,0 STARLINK-3827,1 52370U 22045AR  22144.91667824  .00034141  00000-0  24660-3 0  9990,2 52370  53.2133 312.3661 0001022  48.2506 283.0438 15.73208142  6487,6727.871999999999,91.533,350.425,349.0490000000001,0.0
52370.0,STARLINK-3827,PAYLOAD,2022-05-25 12:00:00,15.73237833,0.0001099,53.2132,309.4771,68.1083,328.8277,-0.00036644,-0.00051813,0.0,0 STARLINK-3827,1 52370U 22045AR  22145.50001157 -.00051813  00000-0 -36644-3 0  9999,2 52370  53.2132 309.4771 0001099  68.1083 328.8277 15.73237833  6578,6727.7869999999975,91.531,350.392,348.913,0.0
52370.0,STARLINK-3827,PAYLOAD,2022-05-25 14:00:01,15.73224015,0.0001137,53.2132,309.0652,64.2466,84.9332,-0.00028127,-0.00039947,0.0,0 STARLINK-3827,1 52370U 22045AR  22145.58334491 -.00039947  00000-0 -28127-3 0  9998,2 52370  53.2132 309.0652 0001137  64.2466  84.9332 15.73224015  1303,6727.8269999999975,91.532,350.457,348.927,0.0
